CCSDS_OMM_VERS = 2.0
CREATION_DATE  = 
ORIGINATOR     = 

OBJECT_NAME    = SL-14 R/B
OBJECT_ID      = 1986-046B
CENTER_NAME    = EARTH
REF_FRAME      = TEME
TIME_SYSTEM    = UTC
MEAN_ELEMENT_THEORY = SGP/SGP4

EPOCH          = 2025-12-09T18:01:00.986304
MEAN_MOTION    = 14.85479966
ECCENTRICITY   = .0023537
INCLINATION    = 82.4811
RA_OF_ASC_NODE = 165.1371
ARG_OF_PERICENTER = 161.8832
MEAN_ANOMALY   = 198.3228

EPHEMERIS_TYPE = 0
CLASSIFICATION_TYPE = U
NORAD_CAT_ID   = 16792
ELEMENT_SET_NO = 999
REV_AT_EPOCH   = 11305
BSTAR          = .99729E-4
MEAN_MOTION_DOT = .889E-5
MEAN_MOTION_DDOT = 0

CCSDS_OMM_VERS = 2.0
CREATION_DATE  = 
ORIGINATOR     = 

OBJECT_NAME    = SL-14 R/B
OBJECT_ID      = 1986-055B
CENTER_NAME    = EARTH
REF_FRAME      = TEME
TIME_SYSTEM    = UTC
MEAN_ELEMENT_THEORY = SGP/SGP4

EPOCH          = 2025-12-09T03:40:34.006368
MEAN_MOTION    = 14.85526142
ECCENTRICITY   = .0017463
INCLINATION    = 82.5208
RA_OF_ASC_NODE = 211.7428
ARG_OF_PERICENTER = 272.3667
MEAN_ANOMALY   = 204.2461

EPHEMERIS_TYPE = 0
CLASSIFICATION_TYPE = U
NORAD_CAT_ID   = 16882
ELEMENT_SET_NO = 999
REV_AT_EPOCH   = 10592
BSTAR          = .97087E-4
MEAN_MOTION_DOT = .864E-5
MEAN_MOTION_DDOT = 0

CCSDS_OMM_VERS = 2.0
CREATION_DATE  = 
ORIGINATOR     = 

OBJECT_NAME    = AJISAI (EGS)
OBJECT_ID      = 1986-061A
CENTER_NAME    = EARTH
REF_FRAME      = TEME
TIME_SYSTEM    = UTC
MEAN_ELEMENT_THEORY = SGP/SGP4

EPOCH          = 2025-12-09T20:05:25.000224
MEAN_MOTION    = 12.44514228
ECCENTRICITY   = .0011292
INCLINATION    = 50.0114
RA_OF_ASC_NODE = 9.6427
ARG_OF_PERICENTER = 58.6251
MEAN_ANOMALY   = 303.9467

EPHEMERIS_TYPE = 0
CLASSIFICATION_TYPE = U
NORAD_CAT_ID   = 16908
ELEMENT_SET_NO = 999
REV_AT_EPOCH   = 45681
BSTAR          = .36094E-4
MEAN_MOTION_DOT = -.92E-6
MEAN_MOTION_DDOT = 0

CCSDS_OMM_VERS = 2.0
CREATION_DATE  = 
ORIGINATOR     = 

OBJECT_NAME    = COSMOS 1812
OBJECT_ID      = 1987-003A
CENTER_NAME    = EARTH
REF_FRAME      = TEME
TIME_SYSTEM    = UTC
MEAN_ELEMENT_THEORY = SGP/SGP4

EPOCH          = 2025-12-09T20:55:05.287008
MEAN_MOTION    = 15.74718905
ECCENTRICITY   = .0007248
INCLINATION    = 82.4869
RA_OF_ASC_NODE = 295.1193
ARG_OF_PERICENTER = 90.8024
MEAN_ANOMALY   = 269.4070

EPHEMERIS_TYPE = 0
CLASSIFICATION_TYPE = U
NORAD_CAT_ID   = 17295
ELEMENT_SET_NO = 999
REV_AT_EPOCH   = 13020
BSTAR          = .84234E-3
MEAN_MOTION_DOT = .125072E-2
MEAN_MOTION_DDOT = 0

CCSDS_OMM_VERS = 2.0
CREATION_DATE  = 
ORIGINATOR     = 

OBJECT_NAME    = SL-14 R/B
OBJECT_ID      = 1987-024B
CENTER_NAME    = EARTH
REF_FRAME      = TEME
TIME_SYSTEM    = UTC
MEAN_ELEMENT_THEORY = SGP/SGP4

EPOCH          = 2025-12-09T19:36:04.346208
MEAN_MOTION    = 14.86019361
ECCENTRICITY   = .0017826
INCLINATION    = 82.5277
RA_OF_ASC_NODE = 177.2004
ARG_OF_PERICENTER = 194.0527
MEAN_ANOMALY   = 166.0196

EPHEMERIS_TYPE = 0
CLASSIFICATION_TYPE = U
NORAD_CAT_ID   = 17567
ELEMENT_SET_NO = 999
REV_AT_EPOCH   = 7478
BSTAR          = .91221E-4
MEAN_MOTION_DOT = .823E-5
MEAN_MOTION_DDOT = 0

CCSDS_OMM_VERS = 2.0
CREATION_DATE  = 
ORIGINATOR     = 

OBJECT_NAME    = COSMOS 1833
OBJECT_ID      = 1987-027A
CENTER_NAME    = EARTH
REF_FRAME      = TEME
TIME_SYSTEM    = UTC
MEAN_ELEMENT_THEORY = SGP/SGP4

EPOCH          = 2025-12-09T17:52:09.587424
MEAN_MOTION    = 14.13020332
ECCENTRICITY   = .0022412
INCLINATION    = 70.9134
RA_OF_ASC_NODE = 155.0738
ARG_OF_PERICENTER = 335.8805
MEAN_ANOMALY   = 24.1264

EPHEMERIS_TYPE = 0
CLASSIFICATION_TYPE = U
NORAD_CAT_ID   = 17589
ELEMENT_SET_NO = 999
REV_AT_EPOCH   = 99760
BSTAR          = .87135E-4
MEAN_MOTION_DOT = .115E-5
MEAN_MOTION_DDOT = 0

CCSDS_OMM_VERS = 2.0
CREATION_DATE  = 
ORIGINATOR     = 

OBJECT_NAME    = SL-16 R/B
OBJECT_ID      = 1987-027B
CENTER_NAME    = EARTH
REF_FRAME      = TEME
TIME_SYSTEM    = UTC
MEAN_ELEMENT_THEORY = SGP/SGP4

EPOCH          = 2025-12-09T18:24:54.122112
MEAN_MOTION    = 14.17152206
ECCENTRICITY   = .0007477
INCLINATION    = 71.0026
RA_OF_ASC_NODE = 105.9812
ARG_OF_PERICENTER = 262.7350
MEAN_ANOMALY   = 97.2923

EPHEMERIS_TYPE = 0
CLASSIFICATION_TYPE = U
NORAD_CAT_ID   = 17590
ELEMENT_SET_NO = 999
REV_AT_EPOCH   = 260
BSTAR          = -.15949E-4
MEAN_MOTION_DOT = -.8E-6
MEAN_MOTION_DDOT = 0

CCSDS_OMM_VERS = 2.0
CREATION_DATE  = 
ORIGINATOR     = 

OBJECT_NAME    = SL-14 R/B
OBJECT_ID      = 1987-038B
CENTER_NAME    = EARTH
REF_FRAME      = TEME
TIME_SYSTEM    = UTC
MEAN_ELEMENT_THEORY = SGP/SGP4

EPOCH          = 2025-12-09T11:54:17.637408
MEAN_MOTION    = 14.85257173
ECCENTRICITY   = .00208564
INCLINATION    = 82.5019
RA_OF_ASC_NODE = 21.7562
ARG_OF_PERICENTER = 102.0277
MEAN_ANOMALY   = 258.3278

EPHEMERIS_TYPE = 0
CLASSIFICATION_TYPE = U
NORAD_CAT_ID   = 17912
ELEMENT_SET_NO = 999
REV_AT_EPOCH   = 6584
BSTAR          = .8810945E-4
MEAN_MOTION_DOT = .783E-5
MEAN_MOTION_DDOT = 0

CCSDS_OMM_VERS = 2.0
CREATION_DATE  = 
ORIGINATOR     = 

OBJECT_NAME    = COSMOS 1844
OBJECT_ID      = 1987-041A
CENTER_NAME    = EARTH
REF_FRAME      = TEME
TIME_SYSTEM    = UTC
MEAN_ELEMENT_THEORY = SGP/SGP4

EPOCH          = 2025-12-09T09:06:52.102080
MEAN_MOTION    = 14.14526375
ECCENTRICITY   = .0030169
INCLINATION    = 70.8982
RA_OF_ASC_NODE = 224.6581
ARG_OF_PERICENTER = 162.4934
MEAN_ANOMALY   = 197.7235

EPHEMERIS_TYPE = 0
CLASSIFICATION_TYPE = U
NORAD_CAT_ID   = 17973
ELEMENT_SET_NO = 999
REV_AT_EPOCH   = 99081
BSTAR          = -.33019805E-4
MEAN_MOTION_DOT = -.112E-5
MEAN_MOTION_DDOT = 0

CCSDS_OMM_VERS = 2.0
CREATION_DATE  = 
ORIGINATOR     = 

OBJECT_NAME    = SL-14 R/B
OBJECT_ID      = 1987-055B
CENTER_NAME    = EARTH
REF_FRAME      = TEME
TIME_SYSTEM    = UTC
MEAN_ELEMENT_THEORY = SGP/SGP4

EPOCH          = 2025-12-09T08:29:25.358208
MEAN_MOTION    = 14.85516324
ECCENTRICITY   = .00195915
INCLINATION    = 82.5001
RA_OF_ASC_NODE = 74.1793
ARG_OF_PERICENTER = 315.2128
MEAN_ANOMALY   = 44.7506

EPHEMERIS_TYPE = 0
CLASSIFICATION_TYPE = U
NORAD_CAT_ID   = 18153
ELEMENT_SET_NO = 999
REV_AT_EPOCH   = 5652
BSTAR          = .10634381E-3
MEAN_MOTION_DOT = .945E-5
MEAN_MOTION_DDOT = 0

CCSDS_OMM_VERS = 2.0
CREATION_DATE  = 
ORIGINATOR     = 

OBJECT_NAME    = COSMOS 1867
OBJECT_ID      = 1987-060A
CENTER_NAME    = EARTH
REF_FRAME      = TEME
TIME_SYSTEM    = UTC
MEAN_ELEMENT_THEORY = SGP/SGP4

EPOCH          = 2025-12-09T07:39:50.355648
MEAN_MOTION    = 14.31485392
ECCENTRICITY   = .00136402
INCLINATION    = 65.0096
RA_OF_ASC_NODE = 199.7813
ARG_OF_PERICENTER = 270.7607
MEAN_ANOMALY   = 89.1915

EPHEMERIS_TYPE = 0
CLASSIFICATION_TYPE = U
NORAD_CAT_ID   = 18187
ELEMENT_SET_NO = 999
REV_AT_EPOCH   = 700
BSTAR          = .498233E-4
MEAN_MOTION_DOT = .32E-6
MEAN_MOTION_DDOT = 0

CCSDS_OMM_VERS = 2.0
CREATION_DATE  = 
ORIGINATOR     = 

OBJECT_NAME    = SL-14 R/B
OBJECT_ID      = 1988-001B
CENTER_NAME    = EARTH
REF_FRAME      = TEME
TIME_SYSTEM    = UTC
MEAN_ELEMENT_THEORY = SGP/SGP4

EPOCH          = 2025-12-09T19:33:06.929856
MEAN_MOTION    = 14.85419334
ECCENTRICITY   = .0018201
INCLINATION    = 82.5131
RA_OF_ASC_NODE = 279.8984
ARG_OF_PERICENTER = 170.6377
MEAN_ANOMALY   = 189.5182

EPHEMERIS_TYPE = 0
CLASSIFICATION_TYPE = U
NORAD_CAT_ID   = 18749
ELEMENT_SET_NO = 999
REV_AT_EPOCH   = 2868
BSTAR          = .1017E-3
MEAN_MOTION_DOT = .902E-5
MEAN_MOTION_DDOT = 0

