SL-14 R/B               
1 16792U 86046B   25343.75070586  .00000889  00000+0  99729-4 0  9998
2 16792  82.4811 165.1371 0023537 161.8832 198.3228 14.85479966113056
SL-14 R/B               
1 16882U 86055B   25343.15317137  .00000864  00000+0  97087-4 0  9996
2 16882  82.5208 211.7428 0017463 272.3667 204.2461 14.85526142105925
AJISAI (EGS)            
1 16908U 86061A   25343.83709491 -.00000092  00000+0  36094-4 0  9990
2 16908  50.0114   9.6427 0011292  58.6251 303.9467 12.44514228456816
COSMOS 1812             
1 17295U 87003A   25343.87158897  .00125072  00000+0  84234-3 0  9992
2 17295  82.4869 295.1193 0007248  90.8024 269.4070 15.74718905130208
SL-14 R/B               
1 17567U 87024B   25343.81671697  .00000823  00000+0  91221-4 0  9990
2 17567  82.5277 177.2004 0017826 194.0527 166.0196 14.86019361 74786
COSMOS 1833             
1 17589U 87027A   25343.74455541  .00000115  00000+0  87135-4 0  9990
2 17589  70.9134 155.0738 0022412 335.8805  24.1264 14.13020332997607
SL-16 R/B               
1 17590U 87027B   25343.76729308 -.00000080  00000+0 -15949-4 0  9996
2 17590  71.0026 105.9812 0007477 262.7350  97.2923 14.17152206  2605
SL-14 R/B               
1 17912U 87038B   25343.49603747  .00000783  00000+0  88109-4 0  9990
2 17912  82.5019  21.7562 0020856 102.0277 258.3278 14.85257173 65841
COSMOS 1844             
1 17973U 87041A   25343.37976970 -.00000112  00000+0 -33020-4 0  9999
2 17973  70.8982 224.6581 0030169 162.4934 197.7235 14.14526375990818
SL-14 R/B               
1 18153U 87055B   25343.35376572  .00000945  00000+0  10634-3 0  9992
2 18153  82.5001  74.1793 0019591 315.2128  44.7506 14.85516324 56527
COSMOS 1867             
1 18187U 87060A   25343.31933282  .00000032  00000+0  49823-4 0  9998
2 18187  65.0096 199.7813 0013640 270.7607  89.1915 14.31485392  7004
SL-14 R/B               
1 18749U 88001B   25343.81466354  .00000902  00000+0  10170-3 0  9992
2 18749  82.5131 279.8984 0018201 170.6377 189.5182 14.85419334 28681
